ONEWEB-0678             
1 56714U 23068E   23311.61801136  .00001994  00000+0  52636-2 0  9994
2 56714  87.8975  88.7910 0001622  98.4969 261.6345 13.15532854 24042
ONEWEB-0679             
1 56715U 23068F   23311.62017166  .00002500  00000+0  33633-3 0  9999
2 56715  86.7219  70.3063 0014571 351.4396   8.6574 14.78787854 25430
ONEWEB-0680             
1 56716U 23068G   23311.58335648  .00000016  00000+0  00000+0 0  9991
2 56716  87.5735  74.2100 0013963   9.8906 351.2730 13.73659763 25873
ONEWEB-0681             
1 56717U 23068H   23311.58335648  .00000016  00000+0  00000+0 0  9992
2 56717  87.5207  74.3049 0014043   9.7933 191.7371 13.71531704 25858
ONEWEB-0682             
1 56718U 23068J   23311.43446785  .00000102  00000+0  19366-3 0  9997
2 56718  88.1005  88.8181 0001638  99.1048 261.0275 13.28747608 24166
ONEWEB-0683             
1 56719U 23068K   23311.42659109  .00000037  00000+0  52792-4 0  9991
2 56719  88.1031  88.7965 0001947 122.3336 237.7991 13.28502178 24130
ONEWEB-0684             
1 56720U 23068L   23311.36841074 -.00000074  00000+0 -23164-3 0  9993
2 56720  87.9020  88.9298 0000997 105.7230 254.4010 13.15545828 23974
ONEWEB-0686             
1 56721U 23068M   23311.58348676  .00012188  00000+0  16612-2 0  9994
2 56721  86.7203  70.2944 0014030 354.5388   5.5677 14.78536677 25426
